BEIDOU-3S IGSO-1S       
1 40549U 15019A   26178.80438100 -.00000163  00000+0  00000+0 0  9995
2 40549  49.1741 295.3331 0039098 191.8080 168.8013  1.00249344 41180
NAVSTAR 74 (USA 262)    
1 40730U 15033A   26178.69157994 -.00000021  00000+0  00000+0 0  9992
2 40730  53.9742 266.6532 0115140  30.2326 330.4797  2.00555813 80206
BEIDOU-3S M2S           
1 40748U 15037A   26179.59929838 -.00000084  00000+0  00000+0 0  9998
2 40748  54.8599 301.6527 0008567 258.3318 101.5721  1.86232293 74335
BEIDOU-3S M1S           
1 40749U 15037B   26178.19464110 -.00000096  00000+0  00000+0 0  9994
2 40749  54.8580 301.6893 0003219  62.4123 297.6156  1.86255050 74312
GSAT0206 (GALILEO 10)   
1 40890U 15045B   26179.60239011  .00000070  00000+0  00000+0 0  9998
2 40890  54.9424 221.2890 0001824 328.9873  31.0992  1.70473821 67235
BEIDOU-3S IGSO-2S       
1 40938U 15053A   26179.65294056 -.00000101  00000+0  00000+0 0  9991
2 40938  49.2025 258.6448 0065621 193.0709 154.6027  1.00257564 39461
NAVSTAR 75 (USA 265)    
1 41019U 15062A   26177.75006963 -.00000080  00000+0  00000+0 0  9995
2 41019  56.9659  30.4428 0112188 230.9710 128.0791  2.00567519 78021
GSAT-15                 
1 41028U 15065A   26179.56780966 -.00000246  00000+0  00000+0 0  9995
2 41028   0.0468 262.9281 0004593 175.1638 136.4962  1.00270523 38919
GSAT0209 (GALILEO 12)   
1 41174U 15079A   26179.18392164 -.00000033  00000+0  00000+0 0  9993
2 41174  55.8335 100.9603 0005085 347.1897  12.7761  1.70473803 64966
GSAT0208 (GALILEO 11)   
1 41175U 15079B   26177.05790245 -.00000039  00000+0  00000+0 0  9996
2 41175  55.8311 101.0154 0004595 354.0123   5.9555  1.70473681 65340
IRNSS-1E                
1 41241U 16003A   26176.59836588 -.00000319  00000+0  00000+0 0  9998
2 41241  33.2517  59.6282 0019062 179.1130   2.2203  1.00274592 38164
NAVSTAR 76 (USA 266)    
1 41328U 16007A   26179.33753677 -.00000053  00000+0  00000+0 0  9995
2 41328  55.5304  89.0177 0095604 247.1405 111.8582  2.00551379 76068
COSMOS 2514 [GLONASS-M] 
1 41330U 16008A   26179.54740373 -.00000074  00000+0  00000+0 0  9994
2 41330  65.0143 312.6168 0011703 199.2051 160.7421  2.13102750 80862
BEIDOU-2 IGSO-6         
1 41434U 16021A   26177.11016981 -.00000145  00000+0  00000+0 0  9995
2 41434  60.2385  37.9495 0057558 231.0163 137.2672  1.00258926 37578
IRNSS-1G                
1 41469U 16027A   26179.54482344 -.00000327  00000+0  00000+0 0  9990
2 41469   5.2228  97.2120 0005801   4.6313 140.3313  1.00281899 37291
GSAT0211 (GALILEO 14)   
1 41549U 16030A   26178.94152421  .00000069  00000+0  00000+0 0  9998
2 41549  55.0927 221.3989 0003116 320.4926  39.5816  1.70474008 62858
GSAT0210 (GALILEO 13)   
1 41550U 16030B   26178.02561661  .00000065  00000+0  00000+0 0  9995
2 41550  55.0912 221.4221 0007792 256.4220 103.5859  1.70473957 62832
BEIDOU-2 G7             
1 41586U 16037A   26179.61228407 -.00000343  00000+0  00000+0 0  9995
2 41586   1.7482  69.4178 0006847   2.2917 175.9754  1.00271617  7009
EUTELSAT 117 WEST B     
1 41589U 16038B   26179.47197565  .00000000  00000+0  00000+0 0  9992
2 41589   0.0104 156.3211 0000290  94.6955  78.4794  1.00270464 36778
GSAT0207 (GALILEO 15)   
1 41859U 16069A   26177.71738502 -.00000038  00000+0  00000+0 0  9995
2 41859  55.5042 100.8225 0005006 333.0982  26.8500  1.70473700 59562
GSAT0212 (GALILEO 16)   
1 41860U 16069B   26178.15742113 -.00000037  00000+0  00000+0 0  9998
2 41860  55.5020 100.8054 0004388  12.7020 347.2841  1.70473636 59821
GSAT0213 (GALILEO 17)   
1 41861U 16069C   26179.11118849 -.00000034  00000+0  00000+0 0  9996
2 41861  55.5047 100.7870 0004537 315.9585  43.9839  1.70474290 59707
GSAT0214 (GALILEO 18)   
1 41862U 16069D   26179.25744257 -.00000033  00000+0  00000+0 0  9999
2 41862  55.5035 100.7756 0003548 328.2164  31.7414  1.70473610 59832
SES-15                  
1 42709U 17026A   26179.56487435  .00000072  00000+0  00000+0 0  9992
2 42709   0.0212 336.1461 0000780 103.8028 270.8967  1.00268274  7545
QZS-2 (MICHIBIKI-2)     
1 42738U 17028A   26179.47782850 -.00000124  00000+0  00000+0 0  9994
2 42738  39.4102 242.9880 0758882 269.3858  78.2980  1.00281030  7733
QZS-3 (MICHIBIKI-3)     
1 42917U 17048A   26179.54430344 -.00000336  00000+0  00000+0 0  9996
2 42917   0.0709 144.5122 0002309 309.9822 145.1402  1.00271205 32377
COSMOS 2522 [GLONASS-M] 
1 42939U 17055A   26175.16181676  .00000104  00000+0  00000+0 0  9995
2 42939  64.0776 191.6387 0008409 235.5259 124.4452  2.13101107 68121
QZS-4 (MICHIBIKI-4)     
1 42965U 17062A   26179.33089073 -.00000344  00000+0  00000+0 0  9990
2 42965  40.1015 343.3436 0746661 268.2976 281.9139  1.00296396 31918
BEIDOU-3 M1             
1 43001U 17069A   26177.26129809 -.00000086  00000+0  00000+0 0  9994
2 43001  56.7000  62.7851 0009932 326.5159  33.4640  1.86231403 58776
BEIDOU-3 M2             
1 43002U 17069B   26179.34790919 -.00000066  00000+0  00000+0 0  9990
2 43002  56.7014  62.7523 0008884 352.9823   7.0583  1.86230801 58802
GSAT0215 (GALILEO 19)   
1 43055U 17079A   26177.40088376  .00000063  00000+0  00000+0 0  9997
2 43055  55.0715 221.2530 0003507 265.2827  94.7697  1.70474651 53144
